IRIDIUM 156             
1 43576U 18061H   26197.62951906  .00000053  00000+0  11888-4 0  9991
2 43576  86.3936  44.4129 0002100  92.3965 267.7471 14.34217869417598
IRIDIUM 164             
1 43577U 18061J   26197.61049213  .00000121  00000+0  36180-4 0  9998
2 43577  86.3938  44.4618 0002335  89.2963 270.8500 14.34218542417639
IRIDIUM 159             
1 43578U 18061K   26197.64854705  .00000040  00000+0  73658-5 0  9994
2 43578  86.3935  44.3821 0002135  85.6584 274.4856 14.34217542417609
IRIDIUM 180             
1 43922U 19002A   26197.43873800  .00000107  00000+0  31162-4 0  9994
2 43922  86.3993 341.3694 0002167  91.4734 268.6710 14.34217682393186
IRIDIUM 176             
1 43923U 19002B   26197.45318427  .00000372  00000+0  55155-4 0  9998
2 43923  86.6113 341.3027 0002337  90.3320 269.8164 14.72249935403559
IRIDIUM 168             
1 43924U 19002C   26197.50216427  .00000005  00000+0 -51329-5 0  9996
2 43924  86.3990 341.4210 0002082  90.4943 269.6492 14.34216748393176
IRIDIUM 173             
1 43925U 19002D   26197.62901586 -.00000070  00000+0 -32072-4 0  9993
2 43925  86.3987 341.2559 0002028  92.7467 267.3961 14.34217647393178
IRIDIUM 169             
1 43926U 19002E   26197.53517567  .00000050  00000+0  98432-5 0  9995
2 43926  86.4222  12.9195 0001938 104.4406 255.7007 14.38613463394446
IRIDIUM 172             
1 43927U 19002F   26197.48313677  .00000030  00000+0  36412-5 0  9994
2 43927  86.3991 341.3243 0002181  91.1165 269.0281 14.34217607393163
IRIDIUM 175             
1 43928U 19002G   26197.45725382  .00000173  00000+0  45176-4 0  9996
2 43928  86.4513 278.2868 0005376 112.9979 247.1789 14.43627621403208
IRIDIUM 171             
1 43929U 19002H   26197.81295097  .00000049  00000+0  10599-4 0  9995
2 43929  86.4001 341.4960 0002248  95.0235 265.1218 14.34217806393203
IRIDIUM 170             
1 43930U 19002J   26197.79919257  .00000380  00000+0  56411-4 0  9996
2 43930  86.6112 341.1602 0002241  87.0653 273.0821 14.72250831403610
IRIDIUM 167             
1 43931U 19002K   26197.80660832  .00000033  00000+0  46657-5 0  9998
2 43931  86.3994 341.2120 0002324  98.4319 261.7140 14.34217731393200
IRIDIUM 181             
1 56726U 23068S   26196.53149983  .00000172  00000+0  45155-4 0  9994
2 56726  86.4474  44.9372 0002412  83.4871 276.6605 14.43312397166529
IRIDIUM 177             
1 56727U 23068T   26197.59685301  .00000620  00000+0  78420-4 0  9990
2 56727  86.1986 314.8288 0002195  96.2807 263.8664 14.80025350170719
IRIDIUM 174             
1 56728U 23068U   26197.85470752  .00000390  00000+0  57962-4 0  9994
2 56728  86.6121 341.2873 0001981  89.1391 271.0053 14.72259501170385
IRIDIUM 178             
1 56729U 23068V   26196.90974237  .00000182  00000+0  20564-4 0  9994
2 56729  86.6536  13.3547 0002309  90.9107 269.2379 14.80026522170611
IRIDIUM 179             
1 56730U 23068W   26196.02544386  .00000137  00000+0  14651-4 0  9997
2 56730  86.6767  22.7863 0002321  93.3552 266.7935 14.80033495170481
